{
    "links": {
        "self": "http://www.neowsapp.com/rest/v1/neo/3736388?api_key=iIulBulltgU6a56xZRHN4H3l9WmuAYTsLGpBGhQ2"
    },
    "id": "3736388",
    "neo_reference_id": "3736388",
    "name": "(2015 XV168)",
    "designation": "2015 XV168",
    "nasa_jpl_url": "http://ssd.jpl.nasa.gov/sbdb.cgi?sstr=3736388",
    "absolute_magnitude_h": 27.5,
    "estimated_diameter": {
        "kilometers": {
            "estimated_diameter_min": 0.008405334,
            "estimated_diameter_max": 0.0187948982
        },
        "meters": {
            "estimated_diameter_min": 8.4053340207,
            "estimated_diameter_max": 18.7948982439
        },
        "miles": {
            "estimated_diameter_min": 0.0052228308,
            "estimated_diameter_max": 0.0116786047
        },
        "feet": {
            "estimated_diameter_min": 27.5765560686,
            "estimated_diameter_max": 61.6630539546
        }
    },
    "is_potentially_hazardous_asteroid": false,
    "close_approach_data": [
        {
            "close_approach_date": "2012-12-25",
            "close_approach_date_full": "2012-Dec-25 03:01",
            "epoch_date_close_approach": 1356404460000,
            "relative_velocity": {
                "kilometers_per_second": "11.0517266846",
                "kilometers_per_hour": "39786.2160646655",
                "miles_per_hour": "24721.6074208473"
            },
            "miss_distance": {
                "astronomical": "0.2503862942",
                "lunar": "97.4002684438",
                "kilometers": "37457256.289513354",
                "miles": "23274859.7887141252"
            },
            "orbiting_body": "Earth"
        },
        {
            "close_approach_date": "2015-11-30",
            "close_approach_date_full": "2015-Nov-30 22:38",
            "epoch_date_close_approach": 1448923080000,
            "relative_velocity": {
                "kilometers_per_second": "5.0354441385",
                "kilometers_per_hour": "18127.5988987201",
                "miles_per_hour": "11263.7849934853"
            },
            "miss_distance": {
                "astronomical": "0.0207258158",
                "lunar": "8.0623423462",
                "kilometers": "3100537.897692346",
                "miles": "1926584.9126965348"
            },
            "orbiting_body": "Earth"
        },
        {
            "close_approach_date": "2018-10-21",
            "close_approach_date_full": "2018-Oct-21 09:31",
            "epoch_date_close_approach": 1540114260000,
            "relative_velocity": {
                "kilometers_per_second": "7.1995570123",
                "kilometers_per_hour": "25918.4052444518",
                "miles_per_hour": "16104.6890809206"
            },
            "miss_distance": {
                "astronomical": "0.1576635789",
                "lunar": "61.3311321921",
                "kilometers": "23586135.580016943",
                "miles": "14655745.0534940934"
            },
            "orbiting_body": "Earth"
        },
        {
            "close_approach_date": "2021-09-30",
            "close_approach_date_full": "2021-Sep-30 05:48",
            "epoch_date_close_approach": 1632980880000,
            "relative_velocity": {
                "kilometers_per_second": "12.9997462082",
                "kilometers_per_hour": "46799.086349614",
                "miles_per_hour": "29079.132293181"
            },
            "miss_distance": {
                "astronomical": "0.344083348",
                "lunar": "133.848422372",
                "kilometers": "51474135.96326876",
                "miles": "31984544.944518488"
            },
            "orbiting_body": "Earth"
        }
    ],
    "orbital_data": {
        "orbit_id": "4",
        "orbit_determination_date": "2018-02-10 07:07:19",
        "first_observation_date": "2015-12-03",
        "last_observation_date": "2015-12-09",
        "data_arc_in_days": 6,
        "observations_used": 9,
        "orbit_uncertainty": "7",
        "minimum_orbit_intersection": ".0194043",
        "jupiter_tisserand_invariant": "4.965",
        "epoch_osculation": "2459000.5",
        "eccentricity": ".2303123308373794",
        "semi_major_axis": "1.301158957714214",
        "inclination": "7.020798025129467",
        "ascending_node_longitude": "249.4479001913621",
        "orbital_period": "542.1181664242264",
        "perihelion_distance": "1.001486005373118",
        "perihelion_argument": "166.9834930845967",
        "aphelion_distance": "1.60083191005531",
        "perihelion_time": "2458974.371931159625",
        "mean_anomaly": "17.35065409185071",
        "mean_motion": ".6640618638082816",
        "equinox": "J2000",
        "orbit_class": {
            "orbit_class_type": "APO",
            "orbit_class_description": "Near-Earth asteroid orbits which cross the Earth’s orbit similar to that of 1862 Apollo",
            "orbit_class_range": "a (semi-major axis) > 1.0 AU; q (perihelion) < 1.017 AU"
        }
    },
    "is_sentry_object": false
}